{
  "type": "FeatureCollection",
  "features": [
    {
      "type": "Feature",
      "properties": {
        "norad_id": 41890,
        "name": "CYGFM07",
        "group": "weather",
        "lat": -3.8391794164427617,
        "lon": 116.03267766798011,
        "alt_km": 419.55730831472465,
        "timestamp": "2025-12-26T14:28:47.332685+00:00",
        "meta_object_name": "CYGFM07",
        "meta_object_id": "2016-078G",
        "meta_epoch": "2025-12-26T04:24:26.717184",
        "meta_mean_motion": 15.50579165,
        "meta_eccentricity": 0.00091636,
        "meta_inclination": 34.9476,
        "meta_ra_of_asc_node": 293.2724,
        "meta_arg_of_pericenter": 329.5262,
        "meta_mean_anomaly": 30.4927,
        "meta_ephemeris_type": 0,
        "meta_classification_type": "U",
        "meta_norad_cat_id": 41890,
        "meta_element_set_no": 999,
        "meta_rev_at_epoch": 50204,
        "meta_bstar": 0.0003751636,
        "meta_mean_motion_dot": 0.0002219,
        "meta_mean_motion_ddot": 0,
        "tle_line1": "1 41890U 16078G   25360.18364256  .00022190  00000+0  37516-3 0  9993",
        "tle_line2": "2 41890  34.9476 293.2724 0009163 329.5262  30.4927 15.50579165502044"
      },
      "geometry": {
        "type": "Point",
        "coordinates": [
          116.03267766798011,
          -3.8391794164427617
        ]
      }
    },
    {
      "type": "Feature",
      "properties": {
        "norad_id": 41891,
        "name": "CYGFM03",
        "group": "weather",
        "lat": 9.226838629459502,
        "lon": -54.1002030766061,
        "alt_km": 409.4598747258342,
        "timestamp": "2025-12-26T14:28:47.332696+00:00",
        "meta_object_name": "CYGFM03",
        "meta_object_id": "2016-078H",
        "meta_epoch": "2025-12-26T05:08:17.982528",
        "meta_mean_motion": 15.50474136,
        "meta_eccentricity": 0.00090668,
        "meta_inclination": 34.943,
        "meta_ra_of_asc_node": 295.0003,
        "meta_arg_of_pericenter": 316.561,
        "meta_mean_anomaly": 43.4397,
        "meta_ephemeris_type": 0,
        "meta_classification_type": "U",
        "meta_norad_cat_id": 41891,
        "meta_element_set_no": 999,
        "meta_rev_at_epoch": 50202,
        "meta_bstar": 0.00038802061,
        "meta_mean_motion_dot": 0.00022868,
        "meta_mean_motion_ddot": 0,
        "tle_line1": "1 41891U 16078H   25360.21409702  .00022868  00000+0  38802-3 0  9995",
        "tle_line2": "2 41891  34.9430 295.0003 0009066 316.5610  43.4397 15.50474136502025"
      },
      "geometry": {
        "type": "Point",
        "coordinates": [
          -54.1002030766061,
          9.226838629459502
        ]
      }
    },
    {
      "type": "Feature",
      "properties": {
        "norad_id": 43010,
        "name": "FENGYUN 3D",
        "group": "weather",
        "lat": -78.62878515897062,
        "lon": 95.18877326739495,
        "alt_km": 834.2796551341144,
        "timestamp": "2025-12-26T14:28:47.332706+00:00",
        "meta_object_name": "FENGYUN 3D",
        "meta_object_id": "2017-072A",
        "meta_epoch": "2025-12-26T06:28:44.226912",
        "meta_mean_motion": 14.19687899,
        "meta_eccentricity": 0.00015975,
        "meta_inclination": 98.9916,
        "meta_ra_of_asc_node": 326.7838,
        "meta_arg_of_pericenter": 144.699,
        "meta_mean_anomaly": 215.4291,
        "meta_ephemeris_type": 0,
        "meta_classification_type": "U",
        "meta_norad_cat_id": 43010,
        "meta_element_set_no": 999,
        "meta_rev_at_epoch": 42045,
        "meta_bstar": 0.00013691751,
        "meta_mean_motion_dot": 2.43e-06,
        "meta_mean_motion_ddot": 0,
        "tle_line1": "1 43010U 17072A   25360.26995633  .00000243  00000+0  13692-3 0  9996",
        "tle_line2": "2 43010  98.9916 326.7838 0001597 144.6990 215.4291 14.19687899420455"
      },
      "geometry": {
        "type": "Point",
        "coordinates": [
          95.18877326739495,
          -78.62878515897062
        ]
      }
    },
    {
      "type": "Feature",
      "properties": {
        "norad_id": 43013,
        "name": "NOAA 20 (JPSS-1)",
        "group": "weather",
        "lat": 46.35021570831184,
        "lon": -72.55409907468223,
        "alt_km": 821.4481885838368,
        "timestamp": "2025-12-26T14:28:47.332718+00:00",
        "meta_object_name": "NOAA 20 (JPSS-1)",
        "meta_object_id": "2017-073A",
        "meta_epoch": "2025-12-26T05:48:02.382336",
        "meta_mean_motion": 14.1952933,
        "meta_eccentricity": 0.00020626,
        "meta_inclination": 98.7616,
        "meta_ra_of_asc_node": 296.3918,
        "meta_arg_of_pericenter": 67.9862,
        "meta_mean_anomaly": 292.1533,
        "meta_ephemeris_type": 0,
        "meta_classification_type": "U",
        "meta_norad_cat_id": 43013,
        "meta_element_set_no": 999,
        "meta_rev_at_epoch": 41993,
        "meta_bstar": 6.9998492e-05,
        "meta_mean_motion_dot": 1.04e-06,
        "meta_mean_motion_ddot": 0,
        "tle_line1": "1 43013U 17073A   25360.24169424  .00000104  00000+0  69998-4 0  9996",
        "tle_line2": "2 43013  98.7616 296.3918 0002062  67.9862 292.1533 14.19529330419934"
      },
      "geometry": {
        "type": "Point",
        "coordinates": [
          -72.55409907468223,
          46.35021570831184
        ]
      }
    },
    {
      "type": "Feature",
      "properties": {
        "norad_id": 43226,
        "name": "GOES 17",
        "group": "weather",
        "lat": 0.34322245248700506,
        "lon": -136.9911337339137,
        "alt_km": 35778.821366210315,
        "timestamp": "2025-12-26T14:28:47.332736+00:00",
        "meta_object_name": "GOES 17",
        "meta_object_id": "2018-022A",
        "meta_epoch": "2025-12-26T06:07:06.879072",
        "meta_mean_motion": 1.00271617,
        "meta_eccentricity": 0.00031687,
        "meta_inclination": 0.4905,
        "meta_ra_of_asc_node": 89.0226,
        "meta_arg_of_pericenter": 191.1301,
        "meta_mean_anomaly": 177.1305,
        "meta_ephemeris_type": 0,
        "meta_classification_type": "U",
        "meta_norad_cat_id": 43226,
        "meta_element_set_no": 999,
        "meta_rev_at_epoch": 2869,
        "meta_bstar": 0,
        "meta_mean_motion_dot": -1.61e-06,
        "meta_mean_motion_ddot": 0,
        "tle_line1": "1 43226U 18022A   25360.25494073 -.00000161  00000+0  00000+0 0  9997",
        "tle_line2": "2 43226   0.4905  89.0226 0003168 191.1301 177.1305  1.00271617 28692"
      },
      "geometry": {
        "type": "Point",
        "coordinates": [
          -136.9911337339137,
          0.34322245248700506
        ]
      }
    },
    {
      "type": "Feature",
      "properties": {
        "norad_id": 43491,
        "name": "FENGYUN 2H",
        "group": "weather",
        "lat": -1.9538363648540604,
        "lon": 31.912330138309247,
        "alt_km": 35795.05904503931,
        "timestamp": "2025-12-26T14:28:47.332759+00:00",
        "meta_object_name": "FENGYUN 2H",
        "meta_object_id": "2018-050A",
        "meta_epoch": "2025-12-26T03:07:59.935584",
        "meta_mean_motion": 1.00270255,
        "meta_eccentricity": 0.00024336,
        "meta_inclination": 2.5832,
        "meta_ra_of_asc_node": 81.1875,
        "meta_arg_of_pericenter": 166.8758,
        "meta_mean_anomaly": 333.148,
        "meta_ephemeris_type": 0,
        "meta_classification_type": "U",
        "meta_norad_cat_id": 43491,
        "meta_element_set_no": 999,
        "meta_rev_at_epoch": 2770,
        "meta_bstar": 0,
        "meta_mean_motion_dot": -1.08e-06,
        "meta_mean_motion_ddot": 0,
        "tle_line1": "1 43491U 18050A   25360.13055481 -.00000108  00000+0  00000+0 0  9996",
        "tle_line2": "2 43491   2.5832  81.1875 0002433 166.8758 333.1480  1.00270255 27706"
      },
      "geometry": {
        "type": "Point",
        "coordinates": [
          31.912330138309247,
          -1.9538363648540604
        ]
      }
    },
    {
      "type": "Feature",
      "properties": {
        "norad_id": 43689,
        "name": "METOP-C",
        "group": "weather",
        "lat": -72.10407696792835,
        "lon": 86.43312411610174,
        "alt_km": 827.5702070883963,
        "timestamp": "2025-12-26T14:28:47.332782+00:00",
        "meta_object_name": "METOP-C",
        "meta_object_id": "2018-087A",
        "meta_epoch": "2025-12-26T06:22:55.964064",
        "meta_mean_motion": 14.21489459,
        "meta_eccentricity": 5.687e-05,
        "meta_inclination": 98.6911,
        "meta_ra_of_asc_node": 57.827,
        "meta_arg_of_pericenter": 13.4753,
        "meta_mean_anomaly": 346.644,
        "meta_ephemeris_type": 0,
        "meta_classification_type": "U",
        "meta_norad_cat_id": 43689,
        "meta_element_set_no": 999,
        "meta_rev_at_epoch": 37026,
        "meta_bstar": 8.3278108e-05,
        "meta_mean_motion_dot": 1.39e-06,
        "meta_mean_motion_ddot": 0,
        "tle_line1": "1 43689U 18087A   25360.26592551  .00000139  00000+0  83278-4 0  9999",
        "tle_line2": "2 43689  98.6911  57.8270 0000568  13.4753 346.6440 14.21489459370269"
      },
      "geometry": {
        "type": "Point",
        "coordinates": [
          86.43312411610174,
          -72.10407696792835
        ]
      }
    }
  ]
}